[{"OBJECT_NAME":"ONEWEB-0376","OBJECT_ID":"2021-090Z","EPOCH":"2026-03-09T17:11:57.871392","MEAN_MOTION":13.19725499,"ECCENTRICITY":0.00017504,"INCLINATION":87.9237,"RA_OF_ASC_NODE":324.7777,"ARG_OF_PERICENTER":89.8249,"MEAN_ANOMALY":270.3084,"EPHEMERIS_TYPE":0,"CLASSIFICATION_TYPE":"U","NORAD_CAT_ID":49302,"ELEMENT_SET_NO":999,"REV_AT_EPOCH":21333,"BSTAR":-0.00038829675,"MEAN_MOTION_DOT":-1.43e-6,"MEAN_MOTION_DDOT":0},{"OBJECT_NAME":"FENGYUN 1C DEB","OBJECT_ID":"1999-025CPG","EPOCH":"2026-02-27T02:08:46.409856","MEAN_MOTION":13.69916856,"ECCENTRICITY":0.02637526,"INCLINATION":99.3722,"RA_OF_ASC_NODE":153.7671,"ARG_OF_PERICENTER":84.5918,"MEAN_ANOMALY":278.5255,"EPHEMERIS_TYPE":0,"CLASSIFICATION_TYPE":"U","NORAD_CAT_ID":31979,"ELEMENT_SET_NO":999,"REV_AT_EPOCH":58957,"BSTAR":0.0021611662,"MEAN_MOTION_DOT":2.381e-5,"MEAN_MOTION_DDOT":0}]
